NORAD_CAT_ID,OBJECT_NAME,OBJECT_TYPE,EPOCH,MEAN_MOTION,ECCENTRICITY,INCLINATION,RA_OF_ASC_NODE,ARG_OF_PERICENTER,MEAN_ANOMALY,BSTAR,MEAN_MOTION_DOT,MEAN_MOTION_DDOT,TLE_LINE0,TLE_LINE1,TLE_LINE2,SEMIMAJOR_AXIS,PERIOD,APOGEE,PERIGEE,DECAYED
53735.0,STARLINK-4618,PAYLOAD,2024-02-27 01:11:49,15.08834511,0.0001454,53.2181,353.279,93.7757,266.3401,1.6053e-05,-3.2e-07,0.0,0 STARLINK-4618,1 53735U 22107AM  24058.04988356 -.00000032  00000-0  16053-4 0  9992,2 53735  53.2181 353.2790 0001454  93.7757 266.3401 15.08834511 81856,6917.897,95.438,540.768,538.756,0.0
53735.0,STARLINK-4618,PAYLOAD,2024-02-27 12:19:32,15.0883595,0.0001573,53.2182,351.2025,78.6421,281.4748,7.3512e-06,-1.71e-06,0.0,0 STARLINK-4618,1 53735U 22107AM  24058.51356506 -.00000171  00000-0  73512-5 0  9998,2 53735  53.2182 351.2025 0001573  78.6421 281.4748 15.08835950 82556,6917.893,95.438,540.846,538.67,0.0
53735.0,STARLINK-4618,PAYLOAD,2024-02-27 20:16:27,15.08835847,0.000136,53.2162,349.7184,95.927,264.1877,-1.4921e-06,-3.12e-06,0.0,0 STARLINK-4618,1 53735U 22107AM  24058.84476700 -.00000312  00000-0 -14921-5 0  9990,2 53735  53.2162 349.7184 0001360  95.9270 264.1877 15.08835847 82602,6917.893,95.438,540.699,538.817,0.0
53735.0,STARLINK-4618,PAYLOAD,2024-02-28 04:13:23,15.08847284,0.0001461,53.2169,348.2317,96.7825,263.3333,0.00024112,3.552e-05,0.0,0 STARLINK-4618,1 53735U 22107AM  24059.17596384  .00003552  00000-0  24112-3 0  9996,2 53735  53.2169 348.2317 0001461  96.7825 263.3333 15.08847284 82020,6917.858,95.437,540.734,538.712,0.0
53735.0,STARLINK-4618,PAYLOAD,2024-02-28 12:10:19,15.08835861,0.000156,53.2181,346.7439,95.9775,264.1395,0.00028679,4.279e-05,0.0,0 STARLINK-4618,1 53735U 22107AM  24059.50716823  .00004279  00000-0  28679-3 0  9994,2 53735  53.2181 346.7439 0001560  95.9775 264.1395 15.08835861 82077,6917.893,95.438,540.837,538.679,0.0
53735.0,STARLINK-4618,PAYLOAD,2024-02-29 12:01:06,15.08842281,0.0001547,53.2176,342.2829,86.1176,273.9993,0.00016163,2.285e-05,0.0,0 STARLINK-4618,1 53735U 22107AM  24060.50076889  .00002285  00000-0  16163-3 0  9997,2 53735  53.2176 342.2829 0001547  86.1176 273.9993 15.08842281 82859,6917.873,95.437,540.809,538.668,0.0
53735.0,STARLINK-4618,PAYLOAD,2024-02-29 18:22:39,15.08839684,0.0001759,53.2166,341.0959,87.2867,272.8327,0.0001314,1.804e-05,0.0,0 STARLINK-4618,1 53735U 22107AM  24060.76573193  .00001804  00000-0  13140-3 0  9993,2 53735  53.2166 341.0959 0001759  87.2867 272.8327 15.08839684 82260,6917.881,95.438,540.963,538.529,0.0
53735.0,STARLINK-4618,PAYLOAD,2024-03-01 11:51:53,15.08841939,0.0001615,53.216,337.8259,77.1305,282.9867,0.00022461,3.289e-05,0.0,0 STARLINK-4618,1 53735U 22107AM  24061.49437131  .00003289  00000-0  22461-3 0  9990,2 53735  53.2160 337.8259 0001615  77.1305 282.9867 15.08841939 83006,6917.874,95.437,540.857,538.622,0.0
53735.0,STARLINK-4618,PAYLOAD,2024-03-02 00:34:58,15.08845062,0.0001551,53.2173,335.4451,83.7139,276.403,0.00017444,2.49e-05,0.0,0 STARLINK-4618,1 53735U 22107AM  24062.02428929  .00002490  00000-0  17444-3 0  9993,2 53735  53.2173 335.4451 0001551  83.7139 276.4030 15.08845062 82454,6917.865,95.437,540.803,538.657,0.0
53735.0,STARLINK-4618,PAYLOAD,2024-03-02 21:14:59,15.08845798,0.0001327,53.2168,331.5778,84.987,275.1274,0.0002808,4.185e-05,0.0,0 STARLINK-4618,1 53735U 22107AM  24062.88540851  .00004185  00000-0  28080-3 0  9997,2 53735  53.2168 331.5778 0001327  84.9870 275.1274 15.08845798 83210,6917.863,95.437,540.646,538.81,0.0
53735.0,STARLINK-4618,PAYLOAD,2024-03-03 00:25:45,15.08848023,0.0001398,53.2169,330.983,89.0224,271.0929,0.00017934,2.568e-05,0.0,0 STARLINK-4618,1 53735U 22107AM  24063.01788653  .00002568  00000-0  17934-3 0  9996,2 53735  53.2169 330.9830 0001398  89.0224 271.0929 15.08848023 83238,6917.856,95.437,540.688,538.754,0.0
53735.0,STARLINK-4618,PAYLOAD,2024-03-04 00:16:32,15.08844885,0.0001619,53.2179,326.5187,99.1891,260.9284,7.5399e-05,9.12e-06,0.0,0 STARLINK-4618,1 53735U 22107AM  24064.01148720  .00000912  00000-0  75399-4 0  9993,2 53735  53.2179 326.5187 0001619  99.1891 260.9284 15.08844885 82752,6917.865,95.437,540.85,538.61,0.0
53735.0,STARLINK-4618,PAYLOAD,2024-03-04 09:48:51,15.08847213,0.0001658,53.2182,324.7403,108.7666,251.3506,0.00014743,2.06e-05,0.0,0 STARLINK-4618,1 53735U 22107AM  24064.40892570  .00002060  00000-0  14743-3 0  9996,2 53735  53.2182 324.7403 0001658 108.7666 251.3506 15.08847213 83443,6917.858,95.437,540.87,538.576,0.0
53735.0,STARLINK-4618,PAYLOAD,2024-03-04 22:31:55,15.08858063,0.0001456,53.2177,322.3582,93.666,266.4499,0.00030777,4.616e-05,0.0,0 STARLINK-4618,1 53735U 22107AM  24064.93883839  .00004616  00000-0  30777-3 0  9996,2 53735  53.2177 322.3582 0001456  93.6660 266.4499 15.08858063 83523,6917.825,95.436,540.697,538.683,0.0
53735.0,STARLINK-4618,PAYLOAD,2024-03-05 00:07:18,15.08862061,0.0001445,53.2171,322.0647,101.4812,258.6342,0.0003882,5.899e-05,0.0,0 STARLINK-4618,1 53735U 22107AM  24065.00507674  .00005899  00000-0  38820-3 0  9996,2 53735  53.2171 322.0647 0001445 101.4812 258.6342 15.08862061 82905,6917.813,95.436,540.678,538.678,0.0
53735.0,STARLINK-4618,PAYLOAD,2024-03-05 20:47:20,15.0882341,0.000132,53.2168,318.1985,87.3255,272.7889,-0.00045837,-7.572e-05,0.0,0 STARLINK-4618,1 53735U 22107AM  24065.86620811 -.00007572  00000-0 -45837-3 0  9997,2 53735  53.2168 318.1985 0001320  87.3255 272.7889 15.08823410 83030,6917.931,95.439,540.709,538.883,0.0
53735.0,STARLINK-4618,PAYLOAD,2024-03-06 03:08:53,15.08822695,0.0001456,53.2181,317.0047,70.3766,289.7384,-0.00033802,-5.661e-05,0.0,0 STARLINK-4618,1 53735U 22107AM  24066.13117025 -.00005661  00000-0 -33802-3 0  9992,2 53735  53.2181 317.0047 0001456  70.3766 289.7384 15.08822695 83707,6917.933,95.439,540.806,538.791,0.0
53735.0,STARLINK-4618,PAYLOAD,2024-03-07 01:24:17,15.08844,0.0001422,53.2176,312.8434,75.5087,284.6063,0.00094935,0.00014855,0.0,0 STARLINK-4618,1 53735U 22107AM  24067.05853713  .00014855  00000-0  94935-3 0  9992,2 53735  53.2176 312.8434 0001422  75.5087 284.6063 15.08844000 83218,6917.868,95.437,540.717,538.749,0.0
53735.0,STARLINK-4618,PAYLOAD,2024-03-07 09:21:13,15.08850225,0.0001405,53.2176,311.3571,84.1133,276.002,0.00082255,0.00012831,0.0,0 STARLINK-4618,1 53735U 22107AM  24067.38973551  .00012831  00000-0  82255-3 0  9995,2 53735  53.2176 311.3571 0001405  84.1133 276.0020 15.08850225 83891,6917.849,95.437,540.686,538.742,0.0
53735.0,STARLINK-4618,PAYLOAD,2024-03-07 23:39:41,15.08845142,0.000134,53.2166,308.68,88.5805,271.5341,0.00052718,8.113e-05,0.0,0 STARLINK-4618,1 53735U 22107AM  24067.98589781  .00008113  00000-0  52718-3 0  9998,2 53735  53.2166 308.6800 0001340  88.5805 271.5341 15.08845142 83355,6917.865,95.437,540.657,538.803,0.0
53735.0,STARLINK-4618,PAYLOAD,2024-03-08 09:12:00,15.08853169,0.0001351,53.2167,306.8972,91.0208,269.0939,0.00092513,0.00014471,0.0,0 STARLINK-4618,1 53735U 22107AM  24068.38333691  .00014471  00000-0  92513-3 0  9991,2 53735  53.2167 306.8972 0001351  91.0208 269.0939 15.08853169 84044,6917.84,95.437,540.64,538.771,0.0
53735.0,STARLINK-4618,PAYLOAD,2024-03-08 15:33:32,15.08832503,0.0001065,53.2166,305.7062,111.0258,249.0848,4.137e-05,3.71e-06,0.0,0 STARLINK-4618,1 53735U 22107AM  24068.64829784  .00000371  00000-0  41370-4 0  9993,2 53735  53.2166 305.7062 0001065 111.0258 249.0848 15.08832503 83451,6917.903,95.438,540.505,539.032,0.0
53735.0,STARLINK-4618,PAYLOAD,2024-03-09 01:05:51,15.08846888,0.0001705,53.2161,303.923,97.4409,262.6776,0.00067432,0.00010462,0.0,0 STARLINK-4618,1 53735U 22107AM  24069.04573850  .00010462  00000-0  67432-3 0  9996,2 53735  53.2161 303.9230 0001705  97.4409 262.6776 15.08846888 83518,6917.859,95.437,540.904,538.545,0.0
53735.0,STARLINK-4618,PAYLOAD,2024-03-09 09:02:47,15.0885843,0.0001876,53.2159,302.4344,99.1616,260.9589,0.00089815,0.00014042,0.0,0 STARLINK-4618,1 53735U 22107AM  24069.37693568  .00014042  00000-0  89815-3 0  9998,2 53735  53.2159 302.4344 0001876  99.1616 260.9589 15.08858430 84197,6917.824,95.436,540.987,538.391,0.0
53735.0,STARLINK-4618,PAYLOAD,2024-03-09 21:45:52,15.08859242,0.0002595,53.2158,300.0544,100.0405,260.088,0.00068468,0.00010631,0.0,0 STARLINK-4618,1 53735U 22107AM  24069.90685358  .00010631  00000-0  68468-3 0  9996,2 53735  53.2158 300.0544 0002595 100.0405 260.0880 15.08859242 84275,6917.822,95.436,541.482,537.891,0.0
53735.0,STARLINK-4618,PAYLOAD,2024-03-10 00:56:38,15.0885046,0.00013,53.2152,299.4612,95.2231,264.8909,0.0002631,3.903e-05,0.0,0 STARLINK-4618,1 53735U 22107AM  24070.03933243  .00003903  00000-0  26310-3 0  9995,2 53735  53.2152 299.4612 0001300  95.2231 264.8909 15.08850460 83660,6917.848,95.437,540.613,538.814,0.0
53735.0,STARLINK-4618,PAYLOAD,2024-03-10 20:01:16,15.08840103,0.0001408,53.2159,295.891,102.6124,257.5026,2.1042e-05,4.7e-07,0.0,0 STARLINK-4618,1 53735U 22107AM  24070.83421531  .00000047  00000-0  21042-4 0  9999,2 53735  53.2159 295.8910 0001408 102.6124 257.5026 15.08840103 83786,6917.88,95.438,540.719,538.771,0.0
53735.0,STARLINK-4618,PAYLOAD,2024-03-11 15:05:54,15.08836607,0.0001457,53.2155,292.3222,100.7615,259.3541,7.1463e-05,8.49e-06,0.0,0 STARLINK-4618,1 53735U 22107AM  24071.62909886  .00000849  00000-0  71463-4 0  9993,2 53735  53.2155 292.3222 0001457 100.7615 259.3541 15.08836607 84538,6917.891,95.438,540.764,538.748,0.0
53735.0,STARLINK-4618,PAYLOAD,2024-03-11 21:27:26,15.08838438,0.0001247,53.215,291.1357,86.3679,273.7455,0.00010418,1.37e-05,0.0,0 STARLINK-4618,1 53735U 22107AM  24071.89405931  .00001370  00000-0  10418-3 0  9996,2 53735  53.2150 291.1357 0001247  86.3679 273.7455 15.08838438 83947,6917.885,95.438,540.613,538.888,0.0
53735.0,STARLINK-4618,PAYLOAD,2024-03-12 21:18:13,15.08837547,0.0001318,53.2152,286.6745,84.8848,275.2294,0.00011987,1.62e-05,0.0,0 STARLINK-4618,1 53735U 22107AM  24072.88766129  .00001620  00000-0  11987-3 0  9995,2 53735  53.2152 286.6745 0001318  84.8848 275.2294 15.08837547 84724,6917.888,95.438,540.665,538.841,0.0
